{
  "links" : {
    "next" : "https://api.nasa.gov/neo/rest/v1/feed?start_date=2013-03-16&end_date=2013-03-16&detailed=true&api_key=t0TVs3DtDT2H8Oy2Zy8m2eVrNsAVKAexjcZXUckd",
    "prev" : "https://api.nasa.gov/neo/rest/v1/feed?start_date=2013-03-14&end_date=2013-03-14&detailed=true&api_key=t0TVs3DtDT2H8Oy2Zy8m2eVrNsAVKAexjcZXUckd",
    "self" : "https://api.nasa.gov/neo/rest/v1/feed?start_date=2013-03-15&end_date=2013-03-15&detailed=true&api_key=t0TVs3DtDT2H8Oy2Zy8m2eVrNsAVKAexjcZXUckd"
  },
  "element_count" : 6,
  "near_earth_objects" : {
    "2013-03-15" : [ {
      "links" : {
        "self" : "https://api.nasa.gov/neo/rest/v1/neo/3629114?api_key=t0TVs3DtDT2H8Oy2Zy8m2eVrNsAVKAexjcZXUckd"
      },
      "neo_reference_id" : "3629114",
      "name" : "(2013 EQ)",
      "nasa_jpl_url" : "http://ssd.jpl.nasa.gov/sbdb.cgi?sstr=3629114",
      "absolute_magnitude_h" : 23.9,
      "estimated_diameter" : {
        "kilometers" : {
          "estimated_diameter_min" : 0.04411182,
          "estimated_diameter_max" : 0.0986370281
        },
        "meters" : {
          "estimated_diameter_min" : 44.1118199997,
          "estimated_diameter_max" : 98.6370281305
        },
        "miles" : {
          "estimated_diameter_min" : 0.0274098057,
          "estimated_diameter_max" : 0.0612901888
        },
        "feet" : {
          "estimated_diameter_min" : 144.7238235278,
          "estimated_diameter_max" : 323.6123073718
        }
      },
      "is_potentially_hazardous_asteroid" : false,
      "close_approach_data" : [ {
        "close_approach_date" : "2013-03-15",
        "epoch_date_close_approach" : 1363330800000,
        "relative_velocity" : {
          "kilometers_per_second" : "6.629864466",
          "kilometers_per_hour" : "23867.5120776916",
          "miles_per_hour" : "14830.3438240523"
        },
        "miss_distance" : {
          "astronomical" : "0.1164941087",
          "lunar" : "45.3162078857",
          "kilometers" : "17427272",
          "miles" : "10828804"
        },
        "orbiting_body" : "Earth"
      } ],
      "orbital_data" : {
        "orbit_id" : "7",
        "orbit_determination_date" : "2017-04-06 08:46:37",
        "orbit_uncertainty" : "8",
        "minimum_orbit_intersection" : ".0945656",
        "jupiter_tisserand_invariant" : "3.359",
        "epoch_osculation" : "2456359.5",
        "eccentricity" : ".5344394518709776",
        "semi_major_axis" : "2.333409544272869",
        "inclination" : "4.264220873099355",
        "ascending_node_longitude" : "341.7766316448489",
        "orbital_period" : "1301.921747984809",
        "perihelion_distance" : "1.086343426441169",
        "perihelion_argument" : "181.7514802566665",
        "aphelion_distance" : "3.580475662104569",
        "perihelion_time" : "2456359.796582916568",
        "mean_anomaly" : "359.9179905780591",
        "mean_motion" : ".2765143147483549",
        "equinox" : "J2000"
      }
    }, {
      "links" : {
        "self" : "https://api.nasa.gov/neo/rest/v1/neo/3512278?api_key=t0TVs3DtDT2H8Oy2Zy8m2eVrNsAVKAexjcZXUckd"
      },
      "neo_reference_id" : "3512278",
      "name" : "(2010 FN)",
      "nasa_jpl_url" : "http://ssd.jpl.nasa.gov/sbdb.cgi?sstr=3512278",
      "absolute_magnitude_h" : 26.6,
      "estimated_diameter" : {
        "kilometers" : {
          "estimated_diameter_min" : 0.0127219879,
          "estimated_diameter_max" : 0.0284472297
        },
        "meters" : {
          "estimated_diameter_min" : 12.7219878539,
          "estimated_diameter_max" : 28.4472296503
        },
        "miles" : {
          "estimated_diameter_min" : 0.0079050743,
          "estimated_diameter_max" : 0.0176762835
        },
        "feet" : {
          "estimated_diameter_min" : 41.7388066307,
          "estimated_diameter_max" : 93.330808926
        }
      },
      "is_potentially_hazardous_asteroid" : false,
      "close_approach_data" : [ {
        "close_approach_date" : "2013-03-15",
        "epoch_date_close_approach" : 1363330800000,
        "relative_velocity" : {
          "kilometers_per_second" : "14.0596748049",
          "kilometers_per_hour" : "50614.8292975342",
          "miles_per_hour" : "31450.086571015"
        },
        "miss_distance" : {
          "astronomical" : "0.2394115693",
          "lunar" : "93.1310958862",
          "kilometers" : "35815460",
          "miles" : "22254696"
        },
        "orbiting_body" : "Earth"
      } ],
      "orbital_data" : {
        "orbit_id" : "10",
        "orbit_determination_date" : "2017-04-06 08:58:07",
        "orbit_uncertainty" : "6",
        "minimum_orbit_intersection" : ".000820582",
        "jupiter_tisserand_invariant" : "6.111",
        "epoch_osculation" : "2458000.5",
        "eccentricity" : ".2109963631558617",
        "semi_major_axis" : ".9895831986652721",
        "inclination" : ".123647362647108",
        "ascending_node_longitude" : "161.5533644639227",
        "orbital_period" : "359.564574137851",
        "perihelion_distance" : ".7807847427067551",
        "perihelion_argument" : "126.0635263061669",
        "aphelion_distance" : "1.198381654623789",
        "perihelion_time" : "2457879.860943156557",
        "mean_anomaly" : "120.785148447325",
        "mean_motion" : "1.001210980984968",
        "equinox" : "J2000"
      }
    }, {
      "links" : {
        "self" : "https://api.nasa.gov/neo/rest/v1/neo/3558380?api_key=t0TVs3DtDT2H8Oy2Zy8m2eVrNsAVKAexjcZXUckd"
      },
      "neo_reference_id" : "3558380",
      "name" : "(2011 EB12)",
      "nasa_jpl_url" : "http://ssd.jpl.nasa.gov/sbdb.cgi?sstr=3558380",
      "absolute_magnitude_h" : 21.3,
      "estimated_diameter" : {
        "kilometers" : {
          "estimated_diameter_min" : 0.1460679643,
          "estimated_diameter_max" : 0.3266178974
        },
        "meters" : {
          "estimated_diameter_min" : 146.0679642714,
          "estimated_diameter_max" : 326.6178974458
        },
        "miles" : {
          "estimated_diameter_min" : 0.090762397,
          "estimated_diameter_max" : 0.2029508896
        },
        "feet" : {
          "estimated_diameter_min" : 479.2256199,
          "estimated_diameter_max" : 1071.581062656
        }
      },
      "is_potentially_hazardous_asteroid" : false,
      "close_approach_data" : [ {
        "close_approach_date" : "2013-03-15",
        "epoch_date_close_approach" : 1363330800000,
        "relative_velocity" : {
          "kilometers_per_second" : "15.7908230488",
          "kilometers_per_hour" : "56846.9629755457",
          "miles_per_hour" : "35322.4920777773"
        },
        "miss_distance" : {
          "astronomical" : "0.2411598728",
          "lunar" : "93.8111877441",
          "kilometers" : "36077004",
          "miles" : "22417210"
        },
        "orbiting_body" : "Earth"
      } ],
      "orbital_data" : {
        "orbit_id" : "24",
        "orbit_determination_date" : "2017-04-06 08:54:16",
        "orbit_uncertainty" : "2",
        "minimum_orbit_intersection" : ".213405",
        "jupiter_tisserand_invariant" : "6.028",
        "epoch_osculation" : "2458000.5",
        "eccentricity" : ".2284231452633205",
        "semi_major_axis" : ".9818947448055623",
        "inclination" : "30.4577969468769",
        "ascending_node_longitude" : "346.3220804341304",
        "orbital_period" : "355.3823299470101",
        "perihelion_distance" : ".7576072588795503",
        "perihelion_argument" : "355.3539093759421",
        "aphelion_distance" : "1.206182230731574",
        "perihelion_time" : "2457937.961047921142",
        "mean_anomaly" : "63.35155366825916",
        "mean_motion" : "1.012993527431931",
        "equinox" : "J2000"
      }
    } ]
  }
}